{"fetched_at":"2026-07-17T17:38:22.296Z","source":"https://celestrak.org/NORAD/elements/gp.php?NAME=JILIN&FORMAT=JSON","constellation":"jilin-1-gaofen","records":[{"OBJECT_NAME":"JILIN-1 GAOFEN 3A","OBJECT_ID":"2019-032C","EPOCH":"2026-07-17T06:09:21.161088","CLASSIFICATION_TYPE":"U","MEAN_MOTION":15.33216966,"ECCENTRICITY":0.00048075,"INCLINATION":44.9729,"RA_OF_ASC_NODE":191.3667,"ARG_OF_PERICENTER":120.1212,"MEAN_ANOMALY":240.015,"EPHEMERIS_TYPE":0,"NORAD_CAT_ID":44312,"ELEMENT_SET_NO":999,"REV_AT_EPOCH":39245,"BSTAR":0.00021237064,"MEAN_MOTION_DOT":0.00006643,"MEAN_MOTION_DDOT":0},{"OBJECT_NAME":"JILIN-1 GAOFEN 2A","OBJECT_ID":"2019-075A","EPOCH":"2026-07-17T06:58:04.454976","CLASSIFICATION_TYPE":"U","MEAN_MOTION":15.40046242,"ECCENTRICITY":0.00049745,"INCLINATION":97.496,"RA_OF_ASC_NODE":282.7993,"ARG_OF_PERICENTER":346.4923,"MEAN_ANOMALY":13.6188,"EPHEMERIS_TYPE":0,"NORAD_CAT_ID":44777,"ELEMENT_SET_NO":999,"REV_AT_EPOCH":36951,"BSTAR":0.00018513817,"MEAN_MOTION_DOT":0.00007313,"MEAN_MOTION_DDOT":0},{"OBJECT_NAME":"JILIN-1 GAOFEN 2B","OBJECT_ID":"2019-086A","EPOCH":"2026-07-17T06:44:18.312000","CLASSIFICATION_TYPE":"U","MEAN_MOTION":15.21012513,"ECCENTRICITY":0.00134202,"INCLINATION":97.487,"RA_OF_ASC_NODE":270.0873,"ARG_OF_PERICENTER":208.0718,"MEAN_ANOMALY":151.9796,"EPHEMERIS_TYPE":0,"NORAD_CAT_ID":44836,"ELEMENT_SET_NO":999,"REV_AT_EPOCH":36506,"BSTAR":0.00014237201,"MEAN_MOTION_DOT":0.00003094,"MEAN_MOTION_DDOT":0},{"OBJECT_NAME":"JILIN-1 GAOFEN 3E","OBJECT_ID":"2020-065D","EPOCH":"2026-07-17T07:50:48.556032","CLASSIFICATION_TYPE":"U","MEAN_MOTION":15.67438051,"ECCENTRICITY":0.00098595,"INCLINATION":97.2204,"RA_OF_ASC_NODE":251.7115,"ARG_OF_PERICENTER":65.2091,"MEAN_ANOMALY":295.0195,"EPHEMERIS_TYPE":0,"NORAD_CAT_ID":46457,"ELEMENT_SET_NO":999,"REV_AT_EPOCH":32447,"BSTAR":0.00043526898,"MEAN_MOTION_DOT":0.00047226,"MEAN_MOTION_DDOT":0},{"OBJECT_NAME":"JILIN-1 GAOFEN 3F","OBJECT_ID":"2020-065E","EPOCH":"2026-07-17T06:46:10.173216","CLASSIFICATION_TYPE":"U","MEAN_MOTION":15.64111596,"ECCENTRICITY":0.00111667,"INCLINATION":97.216,"RA_OF_ASC_NODE":248.8446,"ARG_OF_PERICENTER":50.9385,"MEAN_ANOMALY":309.2866,"EPHEMERIS_TYPE":0,"NORAD_CAT_ID":46458,"ELEMENT_SET_NO":999,"REV_AT_EPOCH":32440,"BSTAR":0.00039720995,"MEAN_MOTION_DOT":0.00037713,"MEAN_MOTION_DDOT":0},{"OBJECT_NAME":"JILIN-1 GAOFEN 3G","OBJECT_ID":"2020-065F","EPOCH":"2026-07-17T06:40:10.782048","CLASSIFICATION_TYPE":"U","MEAN_MOTION":15.77291048,"ECCENTRICITY":0.00057201,"INCLINATION":97.222,"RA_OF_ASC_NODE":256.2065,"ARG_OF_PERICENTER":263.5673,"MEAN_ANOMALY":96.4942,"EPHEMERIS_TYPE":0,"NORAD_CAT_ID":46459,"ELEMENT_SET_NO":999,"REV_AT_EPOCH":32467,"BSTAR":0.00050030301,"MEAN_MOTION_DOT":0.00082528,"MEAN_MOTION_DDOT":0},{"OBJECT_NAME":"JILIN-1 GAOFEN 3H","OBJECT_ID":"2020-065G","EPOCH":"2026-07-17T07:51:45.592128","CLASSIFICATION_TYPE":"U","MEAN_MOTION":15.72549993,"ECCENTRICITY":0.00067343,"INCLINATION":97.2167,"RA_OF_ASC_NODE":252.3764,"ARG_OF_PERICENTER":195.7513,"MEAN_ANOMALY":164.3543,"EPHEMERIS_TYPE":0,"NORAD_CAT_ID":46460,"ELEMENT_SET_NO":999,"REV_AT_EPOCH":32461,"BSTAR":0.00047811426,"MEAN_MOTION_DOT":0.00064138,"MEAN_MOTION_DDOT":0},{"OBJECT_NAME":"JILIN-1 GAOFEN 2D","OBJECT_ID":"2021-086A","EPOCH":"2026-07-17T07:06:22.758336","CLASSIFICATION_TYPE":"U","MEAN_MOTION":15.10874186,"ECCENTRICITY":0.00338705,"INCLINATION":97.6511,"RA_OF_ASC_NODE":321.0015,"ARG_OF_PERICENTER":43.6409,"MEAN_ANOMALY":316.7489,"EPHEMERIS_TYPE":0,"NORAD_CAT_ID":49256,"ELEMENT_SET_NO":999,"REV_AT_EPOCH":26526,"BSTAR":0.00014327323,"MEAN_MOTION_DOT":0.00002349,"MEAN_MOTION_DDOT":0},{"OBJECT_NAME":"JILIN-1 GAOFEN 2F","OBJECT_ID":"2021-097A","EPOCH":"2026-07-17T07:05:50.728992","CLASSIFICATION_TYPE":"U","MEAN_MOTION":15.07957781,"ECCENTRICITY":0.00198767,"INCLINATION":97.6738,"RA_OF_ASC_NODE":324.4295,"ARG_OF_PERICENTER":123.0825,"MEAN_ANOMALY":237.2315,"EPHEMERIS_TYPE":0,"NORAD_CAT_ID":49338,"ELEMENT_SET_NO":999,"REV_AT_EPOCH":26085,"BSTAR":0.00016565459,"MEAN_MOTION_DOT":0.00002492,"MEAN_MOTION_DDOT":0},{"OBJECT_NAME":"JILIN-1 GAOFEN 3D27","OBJECT_ID":"2022-048B","EPOCH":"2026-07-17T07:32:52.120032","CLASSIFICATION_TYPE":"U","MEAN_MOTION":15.8363875,"ECCENTRICITY":0.00055903,"INCLINATION":97.5741,"RA_OF_ASC_NODE":315.1758,"ARG_OF_PERICENTER":239.3567,"MEAN_ANOMALY":120.7151,"EPHEMERIS_TYPE":0,"NORAD_CAT_ID":52444,"ELEMENT_SET_NO":999,"REV_AT_EPOCH":23423,"BSTAR":0.00057445241,"MEAN_MOTION_DOT":0.00127212,"MEAN_MOTION_DDOT":0},{"OBJECT_NAME":"JILIN-1 GAOFEN 3D28","OBJECT_ID":"2022-048C","EPOCH":"2026-07-17T07:13:49.976832","CLASSIFICATION_TYPE":"U","MEAN_MOTION":15.88878464,"ECCENTRICITY":0.00051066,"INCLINATION":97.5664,"RA_OF_ASC_NODE":315.4785,"ARG_OF_PERICENTER":240.0018,"MEAN_ANOMALY":120.0747,"EPHEMERIS_TYPE":0,"NORAD_CAT_ID":52445,"ELEMENT_SET_NO":999,"REV_AT_EPOCH":23429,"BSTAR":0.00064358907,"MEAN_MOTION_DOT":0.00180437,"MEAN_MOTION_DDOT":0.000013838017},{"OBJECT_NAME":"JILIN-1 GAOFEN 3D29","OBJECT_ID":"2022-048D","EPOCH":"2026-07-17T02:37:49.225728","CLASSIFICATION_TYPE":"U","MEAN_MOTION":15.83792996,"ECCENTRICITY":0.00045304,"INCLINATION":97.5729,"RA_OF_ASC_NODE":315.3161,"ARG_OF_PERICENTER":223.3106,"MEAN_ANOMALY":136.7807,"EPHEMERIS_TYPE":0,"NORAD_CAT_ID":52446,"ELEMENT_SET_NO":999,"REV_AT_EPOCH":23422,"BSTAR":0.00062058954,"MEAN_MOTION_DOT":0.0013857,"MEAN_MOTION_DDOT":0},{"OBJECT_NAME":"JILIN-1 GAOFEN 3D31","OBJECT_ID":"2022-048F","EPOCH":"2026-07-17T07:30:50.599296","CLASSIFICATION_TYPE":"U","MEAN_MOTION":15.95142274,"ECCENTRICITY":0.00059668,"INCLINATION":97.5718,"RA_OF_ASC_NODE":316.9269,"ARG_OF_PERICENTER":242.1957,"MEAN_ANOMALY":117.8714,"EPHEMERIS_TYPE":0,"NORAD_CAT_ID":52448,"ELEMENT_SET_NO":999,"REV_AT_EPOCH":23436,"BSTAR":0.00068900641,"MEAN_MOTION_DOT":0.00267135,"MEAN_MOTION_DDOT":0.000029968689},{"OBJECT_NAME":"JILIN-1 GAOFEN 03D09","OBJECT_ID":"2022-098B","EPOCH":"2026-07-17T07:45:12.925728","CLASSIFICATION_TYPE":"U","MEAN_MOTION":15.70492065,"ECCENTRICITY":0.00036207,"INCLINATION":97.5634,"RA_OF_ASC_NODE":330.3505,"ARG_OF_PERICENTER":224.6588,"MEAN_ANOMALY":135.4383,"EPHEMERIS_TYPE":0,"NORAD_CAT_ID":53445,"ELEMENT_SET_NO":999,"REV_AT_EPOCH":21935,"BSTAR":0.00041038889,"MEAN_MOTION_DOT":0.00050358,"MEAN_MOTION_DDOT":0},{"OBJECT_NAME":"JILIN-1 GAOFEN 03D43","OBJECT_ID":"2022-098E","EPOCH":"2026-07-17T08:34:50.162592","CLASSIFICATION_TYPE":"U","MEAN_MOTION":15.7430933,"ECCENTRICITY":0.0003866,"INCLINATION":97.5625,"RA_OF_ASC_NODE":331.5609,"ARG_OF_PERICENTER":221.7869,"MEAN_ANOMALY":138.31,"EPHEMERIS_TYPE":0,"NORAD_CAT_ID":53448,"ELEMENT_SET_NO":999,"REV_AT_EPOCH":21943,"BSTAR":0.00040445914,"MEAN_MOTION_DOT":0.00058371,"MEAN_MOTION_DDOT":0},{"OBJECT_NAME":"JILIN-1 GAOFEN 03D08","OBJECT_ID":"2022-155A","EPOCH":"2026-07-17T07:43:06.112992","CLASSIFICATION_TYPE":"U","MEAN_MOTION":15.67736681,"ECCENTRICITY":0.00043672,"INCLINATION":97.6242,"RA_OF_ASC_NODE":346.2113,"ARG_OF_PERICENTER":220.4642,"MEAN_ANOMALY":139.6294,"EPHEMERIS_TYPE":0,"NORAD_CAT_ID":54251,"ELEMENT_SET_NO":999,"REV_AT_EPOCH":20453,"BSTAR":0.00040936918,"MEAN_MOTION_DOT":0.00044839,"MEAN_MOTION_DDOT":0}]}
