JILIN-1 GAOFEN 3A       
1 44312U 19032C   26198.25649492  .00006643  00000+0  21237-3 0  9992
2 44312  44.9729 191.3667 0004807 120.1212 240.0150 15.33216966392459
JILIN-1 GAOFEN 2A       
1 44777U 19075A   26198.29032934  .00007313  00000+0  18514-3 0  9994
2 44777  97.4960 282.7993 0004974 346.4923  13.6188 15.40046242369510
JILIN-1 GAOFEN 2B       
1 44836U 19086A   26198.28076750  .00003094  00000+0  14237-3 0  9995
2 44836  97.4870 270.0873 0013420 208.0718 151.9796 15.21012513365064
JILIN-1 GAOFEN 3E       
1 46457U 20065D   26198.32695088  .00047226  00000+0  43527-3 0  9990
2 46457  97.2204 251.7115 0009859  65.2091 295.0195 15.67438051324479
JILIN-1 GAOFEN 3F       
1 46458U 20065E   26198.28206219  .00037713  00000+0  39721-3 0  9991
2 46458  97.2160 248.8446 0011166  50.9385 309.2866 15.64111596324401
JILIN-1 GAOFEN 3G       
1 46459U 20065F   26198.27790257  .00082528  00000+0  50030-3 0  9991
2 46459  97.2220 256.2065 0005720 263.5673  96.4942 15.77291048324674
JILIN-1 GAOFEN 3H       
1 46460U 20065G   26198.32761102  .00064138  00000+0  47811-3 0  9996
2 46460  97.2167 252.3764 0006734 195.7513 164.3543 15.72549993324610
JILIN-1 GAOFEN 2D       
1 49256U 21086A   26198.29609674  .00002349  00000+0  14327-3 0  9999
2 49256  97.6511 321.0015 0033870  43.6409 316.7489 15.10874186265266
JILIN-1 GAOFEN 2F       
1 49338U 21097A   26198.29572603  .00002492  00000+0  16565-3 0  9998
2 49338  97.6738 324.4295 0019876 123.0825 237.2315 15.07957781260854
JILIN-1 GAOFEN 3D27     
1 52444U 22048B   26198.31449213  .00127212  00000+0  57445-3 0  9990
2 52444  97.5741 315.1758 0005590 239.3567 120.7151 15.83638750234235
JILIN-1 GAOFEN 3D28     
1 52445U 22048C   26198.30127288  .00180437  13838-4  64359-3 0  9993
2 52445  97.5664 315.4785 0005106 240.0018 120.0747 15.88878464234299
JILIN-1 GAOFEN 3D29     
1 52446U 22048D   26198.10959752  .00138570  00000+0  62059-3 0  9999
2 52446  97.5729 315.3161 0004530 223.3106 136.7807 15.83792996234225
JILIN-1 GAOFEN 3D31     
1 52448U 22048F   26198.31308564  .00267135  29969-4  68901-3 0  9995
2 52448  97.5718 316.9269 0005966 242.1957 117.8714 15.95142274234361
JILIN-1 GAOFEN 03D09    
1 53445U 22098B   26198.32306627  .00050358  00000+0  41039-3 0  9997
2 53445  97.5634 330.3505 0003620 224.6588 135.4383 15.70492065219358
JILIN-1 GAOFEN 03D43    
1 53448U 22098E   26198.35752503  .00058371  00000+0  40446-3 0  9995
2 53448  97.5625 331.5609 0003866 221.7869 138.3100 15.74309330219435
JILIN-1 GAOFEN 03D08    
1 54251U 22155A   26198.32159853  .00044839  00000+0  40937-3 0  9997
2 54251  97.6242 346.2113 0004367 220.4642 139.6294 15.67736681204537
